CCSDS_OMM_VERS = 2.0
CREATION_DATE  = 
ORIGINATOR     = 

OBJECT_NAME    = ARIANE 5 R/B
OBJECT_ID      = 2004-049H
CENTER_NAME    = EARTH
REF_FRAME      = TEME
TIME_SYSTEM    = UTC
MEAN_ELEMENT_THEORY = SGP/SGP4

EPOCH          = 2025-10-26T16:28:31.821024
MEAN_MOTION    = 14.84870750
ECCENTRICITY   = .0085899
INCLINATION    = 98.2507
RA_OF_ASC_NODE = 98.2939
ARG_OF_PERICENTER = 65.7093
MEAN_ANOMALY   = 295.3062

EPHEMERIS_TYPE = 0
CLASSIFICATION_TYPE = U
NORAD_CAT_ID   = 28499
ELEMENT_SET_NO = 999
REV_AT_EPOCH   = 12590
BSTAR          = .15946E-3
MEAN_MOTION_DOT = .1384E-4
MEAN_MOTION_DDOT = 0

CCSDS_OMM_VERS = 2.0
CREATION_DATE  = 
ORIGINATOR     = 

OBJECT_NAME    = CZ-2D R/B
OBJECT_ID      = 2005-024B
CENTER_NAME    = EARTH
REF_FRAME      = TEME
TIME_SYSTEM    = UTC
MEAN_ELEMENT_THEORY = SGP/SGP4

EPOCH          = 2025-10-26T18:31:42.286944
MEAN_MOTION    = 15.50072226
ECCENTRICITY   = .0007299
INCLINATION    = 97.3685
RA_OF_ASC_NODE = 306.0860
ARG_OF_PERICENTER = 135.6653
MEAN_ANOMALY   = 224.5184

EPHEMERIS_TYPE = 0
CLASSIFICATION_TYPE = U
NORAD_CAT_ID   = 28738
ELEMENT_SET_NO = 999
REV_AT_EPOCH   = 11897
BSTAR          = .52645E-3
MEAN_MOTION_DOT = .2958E-3
MEAN_MOTION_DDOT = 0

CCSDS_OMM_VERS = 2.0
CREATION_DATE  = 
ORIGINATOR     = 

OBJECT_NAME    = ALOS (DAICHI)
OBJECT_ID      = 2006-002A
CENTER_NAME    = EARTH
REF_FRAME      = TEME
TIME_SYSTEM    = UTC
MEAN_ELEMENT_THEORY = SGP/SGP4

EPOCH          = 2025-10-26T20:16:16.501152
MEAN_MOTION    = 14.69251837
ECCENTRICITY   = .0001822
INCLINATION    = 98.1014
RA_OF_ASC_NODE = 251.6897
ARG_OF_PERICENTER = 56.7218
MEAN_ANOMALY   = 303.4162

EPHEMERIS_TYPE = 0
CLASSIFICATION_TYPE = U
NORAD_CAT_ID   = 28931
ELEMENT_SET_NO = 999
REV_AT_EPOCH   = 5382
BSTAR          = .41613E-3
MEAN_MOTION_DOT = .2404E-4
MEAN_MOTION_DDOT = 0

CCSDS_OMM_VERS = 2.0
CREATION_DATE  = 
ORIGINATOR     = 

OBJECT_NAME    = H-2A R/B
OBJECT_ID      = 2006-002B
CENTER_NAME    = EARTH
REF_FRAME      = TEME
TIME_SYSTEM    = UTC
MEAN_ELEMENT_THEORY = SGP/SGP4

EPOCH          = 2025-10-26T19:00:03.096000
MEAN_MOTION    = 15.13331332
ECCENTRICITY   = .0055437
INCLINATION    = 98.2289
RA_OF_ASC_NODE = 70.7668
ARG_OF_PERICENTER = 337.0082
MEAN_ANOMALY   = 22.8666

EPHEMERIS_TYPE = 0
CLASSIFICATION_TYPE = U
NORAD_CAT_ID   = 28932
ELEMENT_SET_NO = 999
REV_AT_EPOCH   = 7416
BSTAR          = .52877E-3
MEAN_MOTION_DOT = .971E-4
MEAN_MOTION_DDOT = 0

CCSDS_OMM_VERS = 2.0
CREATION_DATE  = 
ORIGINATOR     = 

OBJECT_NAME    = RESURS-DK 1
OBJECT_ID      = 2006-021A
CENTER_NAME    = EARTH
REF_FRAME      = TEME
TIME_SYSTEM    = UTC
MEAN_ELEMENT_THEORY = SGP/SGP4

EPOCH          = 2025-10-26T20:35:54.884832
MEAN_MOTION    = 15.11778231
ECCENTRICITY   = .0006838
INCLINATION    = 69.9336
RA_OF_ASC_NODE = 222.9555
ARG_OF_PERICENTER = 299.1344
MEAN_ANOMALY   = 60.9137

EPHEMERIS_TYPE = 0
CLASSIFICATION_TYPE = U
NORAD_CAT_ID   = 29228
ELEMENT_SET_NO = 999
REV_AT_EPOCH   = 6729
BSTAR          = .23646E-3
MEAN_MOTION_DOT = .3941E-4
MEAN_MOTION_DDOT = 0

CCSDS_OMM_VERS = 2.0
CREATION_DATE  = 
ORIGINATOR     = 

OBJECT_NAME    = CZ-4B R/B
OBJECT_ID      = 2006-046C
CENTER_NAME    = EARTH
REF_FRAME      = TEME
TIME_SYSTEM    = UTC
MEAN_ELEMENT_THEORY = SGP/SGP4

EPOCH          = 2025-10-26T15:02:49.212672
MEAN_MOTION    = 15.15188457
ECCENTRICITY   = .0034865
INCLINATION    = 97.5798
RA_OF_ASC_NODE = 339.8961
ARG_OF_PERICENTER = 14.4355
MEAN_ANOMALY   = 345.7864

EPHEMERIS_TYPE = 0
CLASSIFICATION_TYPE = U
NORAD_CAT_ID   = 29507
ELEMENT_SET_NO = 999
REV_AT_EPOCH   = 3973
BSTAR          = .30061E-3
MEAN_MOTION_DOT = .566E-4
MEAN_MOTION_DDOT = 0

CCSDS_OMM_VERS = 2.0
CREATION_DATE  = 
ORIGINATOR     = 

OBJECT_NAME    = CZ-2C R/B
OBJECT_ID      = 2007-010B
CENTER_NAME    = EARTH
REF_FRAME      = TEME
TIME_SYSTEM    = UTC
MEAN_ELEMENT_THEORY = SGP/SGP4

EPOCH          = 2025-10-26T19:07:41.382336
MEAN_MOTION    = 14.20182114
ECCENTRICITY   = .0058312
INCLINATION    = 98.3945
RA_OF_ASC_NODE = 54.8185
ARG_OF_PERICENTER = 324.4427
MEAN_ANOMALY   = 35.2871

EPHEMERIS_TYPE = 0
CLASSIFICATION_TYPE = U
NORAD_CAT_ID   = 31114
ELEMENT_SET_NO = 999
REV_AT_EPOCH   = 96071
BSTAR          = .11893E-3
MEAN_MOTION_DOT = .217E-5
MEAN_MOTION_DDOT = 0

CCSDS_OMM_VERS = 2.0
CREATION_DATE  = 
ORIGINATOR     = 

OBJECT_NAME    = COSMO-SKYMED 1
OBJECT_ID      = 2007-023A
CENTER_NAME    = EARTH
REF_FRAME      = TEME
TIME_SYSTEM    = UTC
MEAN_ELEMENT_THEORY = SGP/SGP4

EPOCH          = 2025-10-26T19:38:54.129984
MEAN_MOTION    = 14.95274180
ECCENTRICITY   = .00014
INCLINATION    = 97.8875
RA_OF_ASC_NODE = 124.9235
ARG_OF_PERICENTER = 81.9968
MEAN_ANOMALY   = 278.1412

EPHEMERIS_TYPE = 0
CLASSIFICATION_TYPE = U
NORAD_CAT_ID   = 31598
ELEMENT_SET_NO = 999
REV_AT_EPOCH   = 99488
BSTAR          = .35537E-3
MEAN_MOTION_DOT = .3854E-4
MEAN_MOTION_DDOT = 0

CCSDS_OMM_VERS = 2.0
CREATION_DATE  = 
ORIGINATOR     = 

OBJECT_NAME    = COSMOS 2428
OBJECT_ID      = 2007-029A
CENTER_NAME    = EARTH
REF_FRAME      = TEME
TIME_SYSTEM    = UTC
MEAN_ELEMENT_THEORY = SGP/SGP4

EPOCH          = 2025-10-26T17:29:08.078208
MEAN_MOTION    = 14.12894498
ECCENTRICITY   = .0001743
INCLINATION    = 70.9366
RA_OF_ASC_NODE = 124.5759
ARG_OF_PERICENTER = 128.3183
MEAN_ANOMALY   = 231.8095

EPHEMERIS_TYPE = 0
CLASSIFICATION_TYPE = U
NORAD_CAT_ID   = 31792
ELEMENT_SET_NO = 999
REV_AT_EPOCH   = 94517
BSTAR          = -.10682E-3
MEAN_MOTION_DOT = -.247E-5
MEAN_MOTION_DDOT = 0

CCSDS_OMM_VERS = 2.0
CREATION_DATE  = 
ORIGINATOR     = 

OBJECT_NAME    = SL-16 R/B
OBJECT_ID      = 2007-029B
CENTER_NAME    = EARTH
REF_FRAME      = TEME
TIME_SYSTEM    = UTC
MEAN_ELEMENT_THEORY = SGP/SGP4

EPOCH          = 2025-10-26T21:03:30.453120
MEAN_MOTION    = 14.14804243
ECCENTRICITY   = .0002576
INCLINATION    = 70.9734
RA_OF_ASC_NODE = 93.6611
ARG_OF_PERICENTER = 263.3345
MEAN_ANOMALY   = 208.6200

EPHEMERIS_TYPE = 0
CLASSIFICATION_TYPE = U
NORAD_CAT_ID   = 31793
ELEMENT_SET_NO = 999
REV_AT_EPOCH   = 94644
BSTAR          = -.34495E-4
MEAN_MOTION_DOT = -.114E-5
MEAN_MOTION_DDOT = 0

CCSDS_OMM_VERS = 2.0
CREATION_DATE  = 
ORIGINATOR     = 

OBJECT_NAME    = KORONAS-FOTON
OBJECT_ID      = 2009-003A
CENTER_NAME    = EARTH
REF_FRAME      = TEME
TIME_SYSTEM    = UTC
MEAN_ELEMENT_THEORY = SGP/SGP4

EPOCH          = 2025-10-26T18:56:17.674080
MEAN_MOTION    = 15.39648450
ECCENTRICITY   = .0010675
INCLINATION    = 82.4329
RA_OF_ASC_NODE = 54.6872
ARG_OF_PERICENTER = 278.6332
MEAN_ANOMALY   = 81.3704

EPHEMERIS_TYPE = 0
CLASSIFICATION_TYPE = U
NORAD_CAT_ID   = 33504
ELEMENT_SET_NO = 999
REV_AT_EPOCH   = 92511
BSTAR          = .40372E-3
MEAN_MOTION_DOT = .15995E-3
MEAN_MOTION_DDOT = 0

CCSDS_OMM_VERS = 2.0
CREATION_DATE  = 
ORIGINATOR     = 

OBJECT_NAME    = CZ-2C R/B
OBJECT_ID      = 2011-030B
CENTER_NAME    = EARTH
REF_FRAME      = TEME
TIME_SYSTEM    = UTC
MEAN_ELEMENT_THEORY = SGP/SGP4

EPOCH          = 2025-10-26T19:57:49.775040
MEAN_MOTION    = 14.80650367
ECCENTRICITY   = .0054674
INCLINATION    = 97.8336
RA_OF_ASC_NODE = 255.0060
ARG_OF_PERICENTER = 66.5996
MEAN_ANOMALY   = 348.5952

EPHEMERIS_TYPE = 0
CLASSIFICATION_TYPE = U
NORAD_CAT_ID   = 37731
ELEMENT_SET_NO = 999
REV_AT_EPOCH   = 77028
BSTAR          = .30287E-3
MEAN_MOTION_DOT = .2333E-4
MEAN_MOTION_DDOT = 0

