ARIANE 5 R/B            
1 28499U 04049H   25299.68647941  .00001384  00000+0  15946-3 0  9994
2 28499  98.2507  98.2939 0085899  65.7093 295.3062 14.84870750125902
CZ-2D R/B               
1 28738U 05024B   25299.77201721  .00029580  00000+0  52645-3 0  9991
2 28738  97.3685 306.0860 0007299 135.6653 224.5184 15.50072226118979
ALOS (DAICHI)           
1 28931U 06002A   25299.84463543  .00002404  00000+0  41613-3 0  9992
2 28931  98.1014 251.6897 0001822  56.7218 303.4162 14.69251837 53821
H-2A R/B                
1 28932U 06002B   25299.79170250  .00009710  00000+0  52877-3 0  9998
2 28932  98.2289  70.7668 0055437 337.0082  22.8666 15.13331332 74168
RESURS-DK 1             
1 29228U 06021A   25299.85827413  .00003941  00000+0  23646-3 0  9997
2 29228  69.9336 222.9555 0006838 299.1344  60.9137 15.11778231 67294
CZ-4B R/B               
1 29507U 06046C   25299.62695848  .00005660  00000+0  30061-3 0  9993
2 29507  97.5798 339.8961 0034865  14.4355 345.7864 15.15188457 39731
CZ-2C R/B               
1 31114U 07010B   25299.79700674  .00000217  00000+0  11893-3 0  9999
2 31114  98.3945  54.8185 0058312 324.4427  35.2871 14.20182114960719
COSMO-SKYMED 1          
1 31598U 07023A   25299.81868206  .00003854  00000+0  35537-3 0  9999
2 31598  97.8875 124.9235 0001400  81.9968 278.1412 14.95274180994888
COSMOS 2428             
1 31792U 07029A   25299.72856572 -.00000247  00000+0 -10682-3 0  9993
2 31792  70.9366 124.5759 0001743 128.3183 231.8095 14.12894498945173
SL-16 R/B               
1 31793U 07029B   25299.87743580 -.00000114  00000+0 -34495-4 0  9996
2 31793  70.9734  93.6611 0002576 263.3345 208.6200 14.14804243946443
KORONAS-FOTON           
1 33504U 09003A   25299.78909345  .00015995  00000+0  40372-3 0  9996
2 33504  82.4329  54.6872 0010675 278.6332  81.3704 15.39648450925113
CZ-2C R/B               
1 37731U 11030B   25299.83182610  .00002333  00000+0  30287-3 0  9995
2 37731  97.8336 255.0060 0054674  66.5996 348.5952 14.80650367770284
